{
  "norad_id": 65701,
  "name": "STARLINK-35046",
  "history": [
    {
      "epoch": "2026-03-28T20:01:44.583456Z",
      "apogee_km": 475.7952454711158,
      "perigee_km": 474.5378013406407,
      "latitude_deg": 1.9841622261176795e-05,
      "longitude_deg": 130.13655058962252,
      "height_km": 475.7224141764578,
      "semi_major_axis_km": 6853.303523405878,
      "eccentricity": 9.174e-05,
      "inclination_deg": 53.1565,
      "raan_deg": 256.8216,
      "arg_perigee_deg": 56.9934,
      "mean_anomaly_deg": 303.1155,
      "mean_motion_rev_day": 15.30216259
    },
    {
      "epoch": "2026-03-29T03:52:00.735168Z",
      "apogee_km": 475.9323638527803,
      "perigee_km": 474.438339580106,
      "latitude_deg": -7.187258881562377e-06,
      "longitude_deg": 10.726043840432311,
      "height_km": 475.8467619710346,
      "semi_major_axis_km": 6853.322351716443,
      "eccentricity": 0.000109,
      "inclination_deg": 53.1563,
      "raan_deg": 255.3003,
      "arg_perigee_deg": 71.5351,
      "mean_anomaly_deg": 288.5768,
      "mean_motion_rev_day": 15.30209953
    }
  ]
}